{"type": "FeatureCollection", "features": [ {"type": "Feature", "properties": {"norad_id": 34859, "name": "COSMOS 2251 DEB", "group": "cosmos-2251-debris", "lat": 64.60355204167807, "lon": 37.007594149468126, "alt_km": 524.2834227535286, "timestamp": "2025-12-02T23:34:15.912527+00:00", "meta": {"OBJECT_NAME": "COSMOS 2251 DEB", "OBJECT_ID": "1993-036ACD", "EPOCH": "2025-12-02T12:49:14.377152", "MEAN_MOTION": 15.12082305, "ECCENTRICITY": 0.000464, "INCLINATION": 74.0336, "RA_OF_ASC_NODE": 0.8454, "ARG_OF_PERICENTER": 316.5939, "MEAN_ANOMALY": 196.0454, "EPHEMERIS_TYPE": 0, "CLASSIFICATION_TYPE": "U", "NORAD_CAT_ID": 34859, "ELEMENT_SET_NO": 999, "REV_AT_EPOCH": 88204, "BSTAR": 0.0051652, "MEAN_MOTION_DOT": 0.00090024, "MEAN_MOTION_DDOT": 0}, "tle": {"line1": "1 34859U 93036ACD 25336.53419418  .00090024  00000+0  51652-2 0  9999", "line2": "2 34859  74.0336   0.8454 0004640 316.5939 196.0454 15.12082305882043"}}, "geometry": {"type": "Point", "coordinates": [37.007594149468126, 64.60355204167807]}}, {"type": "Feature", "properties": {"norad_id": 34861, "name": "COSMOS 2251 DEB", "group": "cosmos-2251-debris", "lat": 15.51663555105848, "lon": 75.33244844464403, "alt_km": 561.0245166036148, "timestamp": "2025-12-02T23:34:15.912538+00:00", "meta": {"OBJECT_NAME": "COSMOS 2251 DEB", "OBJECT_ID": "1993-036ACF", "EPOCH": "2025-12-02T07:45:26.512992", "MEAN_MOTION": 15.01510655, "ECCENTRICITY": 0.0006055, "INCLINATION": 74.0189, "RA_OF_ASC_NODE": 72.1119, "ARG_OF_PERICENTER": 86.6939, "MEAN_ANOMALY": 329.4268, "EPHEMERIS_TYPE": 0, "CLASSIFICATION_TYPE": "U", "NORAD_CAT_ID": 34861, "ELEMENT_SET_NO": 999, "REV_AT_EPOCH": 87936, "BSTAR": 0.0029775, "MEAN_MOTION_DOT": 0.00038722, "MEAN_MOTION_DDOT": 0}, "tle": {"line1": "1 34861U 93036ACF 25336.32322353  .00038722  00000+0  29775-2 0  9998", "line2": "2 34861  74.0189  72.1119 0006055  86.6939 329.4268 15.01510655879367"}}, "geometry": {"type": "Point", "coordinates": [75.33244844464403, 15.51663555105848]}}, {"type": "Feature", "properties": {"norad_id": 34874, "name": "COSMOS 2251 DEB", "group": "cosmos-2251-debris", "lat": 57.752349771464004, "lon": -115.29457991338168, "alt_km": 728.2140559943036, "timestamp": "2025-12-02T23:34:15.912548+00:00", "meta": {"OBJECT_NAME": "COSMOS 2251 DEB", "OBJECT_ID": "1993-036ACM", "EPOCH": "2025-12-02T02:06:02.983392", "MEAN_MOTION": 14.36214556, "ECCENTRICITY": 0.00516078, "INCLINATION": 74.0386, "RA_OF_ASC_NODE": 93.3251, "ARG_OF_PERICENTER": 121.9349, "MEAN_ANOMALY": 52.8918, "EPHEMERIS_TYPE": 0, "CLASSIFICATION_TYPE": "U", "NORAD_CAT_ID": 34874, "ELEMENT_SET_NO": 999, "REV_AT_EPOCH": 86891, "BSTAR": 0.001217276, "MEAN_MOTION_DOT": 3.583e-05, "MEAN_MOTION_DDOT": 0}, "tle": {"line1": "1 34874U 93036ACM 25336.08753453  .00003583  00000+0  12173-2 0  9995", "line2": "2 34874  74.0386  93.3251 0051607 121.9349  52.8918 14.36214556868919"}}, "geometry": {"type": "Point", "coordinates": [-115.29457991338168, 57.752349771464004]}}, {"type": "Feature", "properties": {"norad_id": 34875, "name": "COSMOS 2251 DEB", "group": "cosmos-2251-debris", "lat": 73.9119579145869, "lon": -100.7301248617827, "alt_km": 731.454867231394, "timestamp": "2025-12-02T23:34:15.912558+00:00", "meta": {"OBJECT_NAME": "COSMOS 2251 DEB", "OBJECT_ID": "1993-036ACN", "EPOCH": "2025-12-01T22:37:18.281280", "MEAN_MOTION": 14.48867328, "ECCENTRICITY": 0.00159352, "INCLINATION": 74.0431, "RA_OF_ASC_NODE": 178.4426, "ARG_OF_PERICENTER": 302.857, "MEAN_ANOMALY": 125.0088, "EPHEMERIS_TYPE": 0, "CLASSIFICATION_TYPE": "U", "NORAD_CAT_ID": 34875, "ELEMENT_SET_NO": 999, "REV_AT_EPOCH": 87599, "BSTAR": 0.00044979225, "MEAN_MOTION_DOT": 1.677e-05, "MEAN_MOTION_DDOT": 0}, "tle": {"line1": "1 34875U 93036ACN 25335.94257270  .00001677  00000+0  44979-3 0  9998", "line2": "2 34875  74.0431 178.4426 0015935 302.8570 125.0088 14.48867328875991"}}, "geometry": {"type": "Point", "coordinates": [-100.7301248617827, 73.9119579145869]}}, {"type": "Feature", "properties": {"norad_id": 34878, "name": "COSMOS 2251 DEB", "group": "cosmos-2251-debris", "lat": -66.69383268372432, "lon": 20.920380193468255, "alt_km": 1257.9945290522746, "timestamp": "2025-12-02T23:34:15.912569+00:00", "meta": {"OBJECT_NAME": "COSMOS 2251 DEB", "OBJECT_ID": "1993-036ACR", "EPOCH": "2025-12-01T14:17:05.154720", "MEAN_MOTION": 13.44171436, "ECCENTRICITY": 0.04352412, "INCLINATION": 73.9642, "RA_OF_ASC_NODE": 65.0008, "ARG_OF_PERICENTER": 50.7211, "MEAN_ANOMALY": 11.8748, "EPHEMERIS_TYPE": 0, "CLASSIFICATION_TYPE": "U", "NORAD_CAT_ID": 34878, "ELEMENT_SET_NO": 999, "REV_AT_EPOCH": 81123, "BSTAR": 0.00042153975, "MEAN_MOTION_DOT": 4.13e-06, "MEAN_MOTION_DDOT": 0}, "tle": {"line1": "1 34878U 93036ACR 25335.59519855  .00000413  00000+0  42154-3 0  9992", "line2": "2 34878  73.9642  65.0008 0435241  50.7211  11.8748 13.44171436811235"}}, "geometry": {"type": "Point", "coordinates": [20.920380193468255, -66.69383268372432]}}, {"type": "Feature", "properties": {"norad_id": 34882, "name": "COSMOS 2251 DEB", "group": "cosmos-2251-debris", "lat": -51.860443054363856, "lon": -137.11810757500598, "alt_km": 672.9583358978771, "timestamp": "2025-12-02T23:34:15.912579+00:00", "meta": {"OBJECT_NAME": "COSMOS 2251 DEB", "OBJECT_ID": "1993-036ACV", "EPOCH": "2025-12-02T04:06:20.931840", "MEAN_MOTION": 14.61559907, "ECCENTRICITY": 0.00823687, "INCLINATION": 74.0469, "RA_OF_ASC_NODE": 245.796, "ARG_OF_PERICENTER": 15.4065, "MEAN_ANOMALY": 344.9579, "EPHEMERIS_TYPE": 0, "CLASSIFICATION_TYPE": "U", "NORAD_CAT_ID": 34882, "ELEMENT_SET_NO": 999, "REV_AT_EPOCH": 88370, "BSTAR": 0.0002608608, "MEAN_MOTION_DOT": 1.327e-05, "MEAN_MOTION_DDOT": 0}, "tle": {"line1": "1 34882U 93036ACV 25336.17107560  .00001327  00000+0  26086-3 0  9999", "line2": "2 34882  74.0469 245.7960 0082368  15.4065 344.9579 14.61559907883702"}}, "geometry": {"type": "Point", "coordinates": [-137.11810757500598, -51.860443054363856]}}, {"type": "Feature", "properties": {"norad_id": 34883, "name": "COSMOS 2251 DEB", "group": "cosmos-2251-debris", "lat": -1.4190440869762446, "lon": 80.49589006120115, "alt_km": 726.133927976678, "timestamp": "2025-12-02T23:34:15.912589+00:00", "meta": {"OBJECT_NAME": "COSMOS 2251 DEB", "OBJECT_ID": "1993-036ACW", "EPOCH": "2025-12-02T07:01:45.378912", "MEAN_MOTION": 14.50855813, "ECCENTRICITY": 0.0095087, "INCLINATION": 74.1989, "RA_OF_ASC_NODE": 82.1807, "ARG_OF_PERICENTER": 269.0974, "MEAN_ANOMALY": 89.9292, "EPHEMERIS_TYPE": 0, "CLASSIFICATION_TYPE": "U", "NORAD_CAT_ID": 34883, "ELEMENT_SET_NO": 999, "REV_AT_EPOCH": 86288, "BSTAR": 0.0060298, "MEAN_MOTION_DOT": 0.00025271, "MEAN_MOTION_DDOT": 0}, "tle": {"line1": "1 34883U 93036ACW 25336.29288633  .00025271  00000+0  60298-2 0  9990", "line2": "2 34883  74.1989  82.1807 0095087 269.0974  89.9292 14.50855813862889"}}, "geometry": {"type": "Point", "coordinates": [80.49589006120115, -1.4190440869762446]}}, {"type": "Feature", "properties": {"norad_id": 34884, "name": "COSMOS 2251 DEB", "group": "cosmos-2251-debris", "lat": 20.078715044240397, "lon": 82.29300361734197, "alt_km": 601.1388991204276, "timestamp": "2025-12-02T23:34:15.912600+00:00", "meta": {"OBJECT_NAME": "COSMOS 2251 DEB", "OBJECT_ID": "1993-036ACX", "EPOCH": "2025-12-02T09:15:42.770016", "MEAN_MOTION": 14.89210086, "ECCENTRICITY": 0.00031, "INCLINATION": 74.0175, "RA_OF_ASC_NODE": 77.4718, "ARG_OF_PERICENTER": 143.6652, "MEAN_ANOMALY": 282.2887, "EPHEMERIS_TYPE": 0, "CLASSIFICATION_TYPE": "U", "NORAD_CAT_ID": 34884, "ELEMENT_SET_NO": 999, "REV_AT_EPOCH": 87651, "BSTAR": 0.0034999, "MEAN_MOTION_DOT": 0.00033232, "MEAN_MOTION_DDOT": 0}, "tle": {"line1": "1 34884U 93036ACX 25336.38591169  .00033232  00000+0  34999-2 0  9997", "line2": "2 34884  74.0175  77.4718 0003100 143.6652 282.2887 14.89210086876511"}}, "geometry": {"type": "Point", "coordinates": [82.29300361734197, 20.078715044240397]}}, {"type": "Feature", "properties": {"norad_id": 34885, "name": "COSMOS 2251 DEB", "group": "cosmos-2251-debris", "lat": 11.174010872074915, "lon": 18.15075130138594, "alt_km": 727.3445055599132, "timestamp": "2025-12-02T23:34:15.912610+00:00", "meta": {"OBJECT_NAME": "COSMOS 2251 DEB", "OBJECT_ID": "1993-036ACY", "EPOCH": "2025-12-02T01:58:55.498656", "MEAN_MOTION": 14.5141511, "ECCENTRICITY": 0.00154629, "INCLINATION": 74.0312, "RA_OF_ASC_NODE": 203.0861, "ARG_OF_PERICENTER": 288.9275, "MEAN_ANOMALY": 221.2045, "EPHEMERIS_TYPE": 0, "CLASSIFICATION_TYPE": "U", "NORAD_CAT_ID": 34885, "ELEMENT_SET_NO": 999, "REV_AT_EPOCH": 87324, "BSTAR": 0.00073065963, "MEAN_MOTION_DOT": 2.893e-05, "MEAN_MOTION_DDOT": 0}, "tle": {"line1": "1 34885U 93036ACY 25336.08258679  .00002893  00000+0  73066-3 0  9999", "line2": "2 34885  74.0312 203.0861 0015462 288.9275 221.2045 14.51415110873249"}}, "geometry": {"type": "Point", "coordinates": [18.15075130138594, 11.174010872074915]}}, {"type": "Feature", "properties": {"norad_id": 34886, "name": "COSMOS 2251 DEB", "group": "cosmos-2251-debris", "lat": 68.42612461242457, "lon": -24.60417196471317, "alt_km": 443.476088651355, "timestamp": "2025-12-02T23:34:15.912620+00:00", "meta": {"OBJECT_NAME": "COSMOS 2251 DEB", "OBJECT_ID": "1993-036ACZ", "EPOCH": "2025-12-01T00:14:36.382848", "MEAN_MOTION": 15.36489128, "ECCENTRICITY": 0.00312375, "INCLINATION": 73.9522, "RA_OF_ASC_NODE": 206.3743, "ARG_OF_PERICENTER": 33.5009, "MEAN_ANOMALY": 326.8163, "EPHEMERIS_TYPE": 0, "CLASSIFICATION_TYPE": "U", "NORAD_CAT_ID": 34886, "ELEMENT_SET_NO": 999, "REV_AT_EPOCH": 62818, "BSTAR": 0.0018065183, "MEAN_MOTION_DOT": 0.00065913, "MEAN_MOTION_DDOT": 0}, "tle": {"line1": "1 34886U 93036ACZ 25335.01014332  .00065913  00000+0  18065-2 0  9997", "line2": "2 34886  73.9522 206.3743 0031237  33.5009 326.8163 15.36489128628181"}}, "geometry": {"type": "Point", "coordinates": [-24.60417196471317, 68.42612461242457]}}]}